{
    "RECORDS": [
        {
            "CCSDS_OPM_VERS": 37894.76,
            "CREATION_DATE": "2028-10-25T03:33:33.320Z",
            "ORIGINATOR": "Kutch, Auer and Hermann",
            "OBJECT_NAME": "0xb",
            "OBJECT_ID": "0xC",
            "CENTER_NAME": "0x9",
            "REF_FRAME": 0,
            "REF_FRAME_EPOCH": "2097-11-16T04:22:51.179Z",
            "TIME_SYSTEM": 13,
            "COMMENT": "0x6",
            "EPOCH": "1992-07-15T11:22:37.431Z",
            "X": 15228.84,
            "Y": 7765.05,
            "Z": 78250.46,
            "X_DOT": 28919.78,
            "Y_DOT": 28173.42,
            "Z_DOT": 1337.22,
            "SEMI_MAJOR_AXIS": 195.59,
            "ECCENTRICITY": 90044.57,
            "INCLINATION": 66045.83,
            "RA_OF_ASC_NODE": 22130.71,
            "ARG_OF_PERICENTER": 43314.9,
            "TRUE_ANOMALY": 66429.33,
            "MEAN_ANOMALY": 85318.39,
            "GM": 88701.24,
            "MASS": 62127.76,
            "SOLAR_RAD_AREA": 55217.37,
            "SOLAR_RAD_COEFF": 92095.6,
            "DRAG_AREA": 32675.18,
            "DRAG_COEFF": 61925.43,
            "COV_REF_FRAME": 0,
            "CX_X": 27157.93,
            "CY_X": 33076.22,
            "CY_Y": 78363.48,
            "CZ_X": 70966.51,
            "CZ_Y": 34646.82,
            "CZ_Z": 64228.85,
            "CX_DOT_X": 68387.09,
            "CX_DOT_Y": 78018.42,
            "CX_DOT_Z": 99825.89,
            "CX_DOT_X_DOT": 58652.77,
            "CY_DOT_X": 20919.05,
            "CY_DOT_Y": 42556.73,
            "CY_DOT_Z": 943.01,
            "CY_DOT_X_DOT": 84734.04,
            "CY_DOT_Y_DOT": 78017.28,
            "CZ_DOT_X": 33081.47,
            "CZ_DOT_Y": 38431.03,
            "CZ_DOT_Z": 33578.77,
            "CZ_DOT_X_DOT": 80124.74,
            "CZ_DOT_Y_DOT": 37228.2,
            "CZ_DOT_Z_DOT": 81966.83,
            "MANEUVERS": [
                {
                    "MAN_EPOCH_IGNITION": "2052-11-23T19:01:57.029Z",
                    "MAN_DURATION": 83126.59,
                    "MAN_DELTA_MASS": 20629.14,
                    "MAN_REF_FRAME": 0,
                    "MAN_DV_1": 68069.17,
                    "MAN_DV_2": 74868.01,
                    "MAN_DV_3": 50055.01
                },
                {
                    "MAN_EPOCH_IGNITION": "1991-08-24T13:55:11.543Z",
                    "MAN_DURATION": 35424.69,
                    "MAN_DELTA_MASS": 71270.3,
                    "MAN_REF_FRAME": 0,
                    "MAN_DV_1": 65734.59,
                    "MAN_DV_2": 88980.88,
                    "MAN_DV_3": 53110.61
                }
            ],
            "USER_DEFINED_BIP_0044_TYPE": 3128859448,
            "USER_DEFINED_OBJECT_DESIGNATOR": "0xC",
            "USER_DEFINED_EARTH_MODEL": "0x1",
            "USER_DEFINED_EPOCH_TIMESTAMP": 31186.47,
            "USER_DEFINED_EPOCH_MICROSECONDS": 6457.3
        }
    ]
}